[{"OBJECT_NAME":"MONOLITH","OBJECT_ID":"2021-068A","EPOCH":"2026-03-09T13:05:30.210720","MEAN_MOTION":15.08010119,"ECCENTRICITY":0.00026796,"INCLINATION":37.022,"RA_OF_ASC_NODE":141.2957,"ARG_OF_PERICENTER":131.6464,"MEAN_ANOMALY":228.4511,"EPHEMERIS_TYPE":0,"CLASSIFICATION_TYPE":"U","NORAD_CAT_ID":49052,"ELEMENT_SET_NO":999,"REV_AT_EPOCH":25222,"BSTAR":0.00053655804,"MEAN_MOTION_DOT":8.348e-5,"MEAN_MOTION_DDOT":0},{"OBJECT_NAME":"STARLINK-5411","OBJECT_ID":"2022-177AX","EPOCH":"2026-03-09T22:00:01.999584","MEAN_MOTION":15.08560736,"ECCENTRICITY":0.00012422,"INCLINATION":43.0006,"RA_OF_ASC_NODE":119.0286,"ARG_OF_PERICENTER":246.312,"MEAN_ANOMALY":347.346,"EPHEMERIS_TYPE":0,"CLASSIFICATION_TYPE":"U","NORAD_CAT_ID":54865,"ELEMENT_SET_NO":999,"REV_AT_EPOCH":567,"BSTAR":0.0034707185,"MEAN_MOTION_DOT":0.00055363,"MEAN_MOTION_DDOT":0}]
